HAWK-6B                 
1 55324U 23011A   26165.95348958  .00004881  00000+0  21180-3 0  9992
2 55324  40.4995   5.1004 0002754 346.5783  13.4953 15.22916591187503
HAWK-6C                 
1 55326U 23011C   26165.95282221  .00004190  00000+0  18302-3 0  9999
2 55326  40.4989   1.9422 0003596 337.2013  22.8636 15.22913356187513
HAWK-6A                 
1 55327U 23011D   26165.95287757  .00004586  00000+0  19954-3 0  9992
2 55327  40.4995   3.5673 0003328 334.9112  25.1535 15.22913773187511
HAWK-7A                 
1 56191U 23054P   26166.47249618  .00004851  00000+0  18383-3 0  9991
2 56191  97.2707  53.8537 0004427  61.3531 298.8153 15.27345729176761
HAWK-7B                 
1 56193U 23054R   26166.40689440  .00004773  00000+0  18095-3 0  9990
2 56193  97.2734  52.0532 0003805  72.1623 288.0031 15.27342635176758
HAWK-7C                 
1 56200U 23054Y   26166.40678527  .00004638  00000+0  17587-3 0  9998
2 56200  97.2709  52.8224 0003788  64.0220 296.1409 15.27344433176755
