OBJECT_NAME,OBJECT_ID,EPOCH,MEAN_MOTION,ECCENTRICITY,INCLINATION,RA_OF_ASC_NODE,ARG_OF_PERICENTER,MEAN_ANOMALY,EPHEMERIS_TYPE,CLASSIFICATION_TYPE,NORAD_CAT_ID,ELEMENT_SET_NO,REV_AT_EPOCH,BSTAR,MEAN_MOTION_DOT,MEAN_MOTION_DDOT
HAWK-6B,2023-011A,2026-06-14T22:53:01.499712,15.22916591,.00027545,40.4995,5.1004,346.5783,13.4953,0,U,55324,999,18750,.21179999E-3,.4881E-4,0
HAWK-6C,2023-011C,2026-06-14T22:52:03.838944,15.22913356,.00035966,40.4989,1.9422,337.2013,22.8636,0,U,55326,999,18751,.1830179E-3,.419E-4,0
HAWK-6A,2023-011D,2026-06-14T22:52:08.622048,15.22913773,.00033289,40.4995,3.5673,334.9112,25.1535,0,U,55327,999,18751,.19953935E-3,.4586E-4,0
HAWK-7A,2023-054P,2026-06-15T11:20:23.669952,15.27345729,.0004427,97.2707,53.8537,61.3531,298.8153,0,U,56191,999,17676,.18383E-3,.4851E-4,0
HAWK-7B,2023-054R,2026-06-15T09:45:55.676160,15.27342635,.0003805,97.2734,52.0532,72.1623,288.0031,0,U,56193,999,17675,.18095E-3,.4773E-4,0
HAWK-7C,2023-054Y,2026-06-15T09:45:46.247328,15.27344433,.0003788,97.2709,52.8224,64.0220,296.1409,0,U,56200,999,17675,.17587E-3,.4638E-4,0
